[{"OBJECT_NAME":"STARLINK-32620","OBJECT_ID":"2024-207S","EPOCH":"2026-03-09T23:04:51.320640","MEAN_MOTION":15.27587154,"ECCENTRICITY":0.00012387,"INCLINATION":42.9976,"RA_OF_ASC_NODE":280.2017,"ARG_OF_PERICENTER":177.7922,"MEAN_ANOMALY":182.2936,"EPHEMERIS_TYPE":0,"CLASSIFICATION_TYPE":"U","NORAD_CAT_ID":61928,"ELEMENT_SET_NO":999,"REV_AT_EPOCH":7476,"BSTAR":0.00082729981,"MEAN_MOTION_DOT":0.00022578,"MEAN_MOTION_DDOT":0},{"OBJECT_NAME":"TEVEL2-9","OBJECT_ID":"2025-052AD","EPOCH":"2026-03-09T16:51:18.321696","MEAN_MOTION":15.28633834,"ECCENTRICITY":0.000799,"INCLINATION":97.4057,"RA_OF_ASC_NODE":324.3929,"ARG_OF_PERICENTER":124.2475,"MEAN_ANOMALY":235.9522,"EPHEMERIS_TYPE":0,"CLASSIFICATION_TYPE":"U","NORAD_CAT_ID":63237,"ELEMENT_SET_NO":999,"REV_AT_EPOCH":5481,"BSTAR":0.00067240159,"MEAN_MOTION_DOT":0.00018694,"MEAN_MOTION_DDOT":0}]
